[{"name":"ASTRA 2E","l1":"1 39285U 13056A   26183.74864269  .00000161  00000+0  00000+0 0  9994","l2":"2 39285   0.0752 314.9367 0002725 163.1636 100.6954  1.00275032 46575","cat":"geostationary"},{"name":"FM-6","l1":"1 39360U 13058A   26183.70211648 -.00000005  00000+0  00000+0 0  9991","l2":"2 39360   0.0160  40.7600 0001960 138.6453 237.7772  1.00271889 46228","cat":"geostationary"},{"name":"RADUGA-1M 3","l1":"1 39375U 13062A   26183.73212434  .00000161  00000+0  00000+0 0  9991","l2":"2 39375   5.9949  72.1589 0001878 282.0892 225.0751  1.00273797 46268","cat":"geostationary"},{"name":"SES-8","l1":"1 39460U 13071A   26183.80480274 -.00000259  00000+0  00000+0 0  9992","l2":"2 39460   0.0422 267.1121 0003043 191.9070 206.5515  1.00272753 44581","cat":"geostationary"},{"name":"INMARSAT 5-F1","l1":"1 39476U 13073A   26183.77726420  .00000038  00000+0  00000+0 0  9997","l2":"2 39476   0.0186  27.9863 0000627 336.8090 258.4696  1.00273425 45738","cat":"geostationary"},{"name":"TKSAT-1 (TUPAC KATARI)","l1":"1 39481U 13075A   26183.63661329 -.00000184  00000+0  00000+0 0  9999","l2":"2 39481   0.0397 136.9276 0002767 318.0827 327.6532  1.00270942 45755","cat":"geostationary"},{"name":"EXPRESS-AM5","l1":"1 39487U 13077A   26183.89545846 -.00000270  00000+0  00000+0 0  9996","l2":"2 39487   0.0207 291.3497 0000236 109.2889 342.6815  1.00269583 46514","cat":"geostationary"},{"name":"GSAT-14","l1":"1 39498U 14001A   26183.78828233 -.00000066  00000+0  00000+0 0  9991","l2":"2 39498   0.0413 239.4988 0001195 323.0183  76.0746  1.00271220 45534","cat":"geostationary"},{"name":"THAICOM 6","l1":"1 39500U 14002A   26183.79047505 -.00000110  00000+0  00000+0 0  9992","l2":"2 39500   0.0602 108.9092 0004744   8.4238 166.5786  1.00270897 45619","cat":"geostationary"},{"name":"TDRS 12","l1":"1 39504U 14004A   26183.43187132 -.00000261  00000+0  00000+0 0  9997","l2":"2 39504   3.9914  19.3283 0003541 201.9559 173.6483  1.00277877 44435","cat":"geostationary"},{"name":"ABS-2","l1":"1 39508U 14006A   26183.78828235 -.00000075  00000+0  00000+0 0  9990","l2":"2 39508   0.0230  68.5876 0003849  17.5290 193.4054  1.00271938 45433","cat":"geostationary"},{"name":"ATHENA-FIDUS","l1":"1 39509U 14006B   26183.75634175  .00000165  00000+0  00000+0 0  9995","l2":"2 39509   0.0286  94.4067 0001645  18.5301 117.9333  1.00272715 45245","cat":"geostationary"},{"name":"TURKSAT 4A","l1":"1 39522U 14007A   26183.75963942  .00000157  00000+0  00000+0 0  9999","l2":"2 39522   0.0864 281.0379 0000722 326.8177 348.4209  1.00273708 45126","cat":"geostationary"},{"name":"EXPRESS-AT1","l1":"1 39612U 14010A   26183.82155780  .00000017  00000+0  00000+0 0  9999","l2":"2 39612   0.2965  85.4979 0004553  45.3906 149.9780  1.00307951 44979","cat":"geostationary"},{"name":"EXPRESS-AT2","l1":"1 39613U 14010B   26183.78648390  .00000000  00000+0  00000+0 0  9991","l2":"2 39613   0.0186  22.0441 0000334  71.0663 166.8413  1.00270396 44651","cat":"geostationary"},{"name":"AMAZONAS 4A","l1":"1 39616U 14011A   26183.56794633 -.00000242  00000+0  00000+0 0  9992","l2":"2 39616   0.0701 211.0525 0004946 277.8907 282.1090  1.00269578 44866","cat":"geostationary"},{"name":"ASTRA 5B","l1":"1 39617U 14011B   26183.72747301  .00000148  00000+0  00000+0 0  9995","l2":"2 39617   0.0773 302.4413 0002216 164.9168  98.8104  1.00274609 44825","cat":"geostationary"},{"name":"IRNSS-1B","l1":"1 39635U 14017A   26183.73602435  .00000142  00000+0  00000+0 0  9994","l2":"2 39635  28.8979 240.1346 0022895 194.2235 166.4341  1.00271810 44950","cat":"geostationary"},{"name":"LUCH-5V","l1":"1 39727U 14023A   26183.80520380 -.00000260  00000+0  00000+0 0  9991","l2":"2 39727   5.1696  69.5910 0002636  56.8714 178.9914  1.00269954 44514","cat":"geostationary"},{"name":"KAZSAT-3","l1":"1 39728U 14023B   26183.77476564  .00000071  00000+0  00000+0 0  9991","l2":"2 39728   0.0106  10.0372 0000340 160.4347  87.7460  1.00274193 42615","cat":"geostationary"},{"name":"EUTELSAT 3B","l1":"1 39773U 14030A   26183.72578597  .00000031  00000+0  00000+0 0  9999","l2":"2 39773   0.0606   6.3028 0004193  92.9995  85.8255  1.00271929 44228","cat":"geostationary"},{"name":"ASIASAT 8 (AMOS-7)","l1":"1 40107U 14046A   26183.75685053 -.00000322  00000+0  00000+0 0  9992","l2":"2 40107   0.0375 271.4377 0001756 177.7952 209.3184  1.00274640102304","cat":"geostationary"},{"name":"ASIASAT 6","l1":"1 40141U 14052A   26183.74889587 -.00000351  00000+0  00000+0 0  9996","l2":"2 40141   0.0340 266.7151 0000916 219.2534 184.3276  1.00270512 43230","cat":"geostationary"},{"name":"OPTUS 10","l1":"1 40146U 14054A   26183.69825542 -.00000137  00000+0  00000+0 0  9990","l2":"2 40146   0.0997 328.3699 0002122 133.0032 226.7434  1.00270508 43188","cat":"geostationary"},{"name":"MEASAT-3B","l1":"1 40147U 14054B   26183.80150777 -.00000231  00000+0  00000+0 0  9990","l2":"2 40147   0.0241  12.7854 0002546  72.1757 215.9094  1.00271283 43065","cat":"geostationary"},{"name":"HIMAWARI-8","l1":"1 40267U 14060A   26183.75305588 -.00000265  00000+0  00000+0 0  9993","l2":"2 40267   0.0090 350.5913 0001053 117.0732 224.9023  1.00271911 42916","cat":"geostationary"},{"name":"IRNSS-1C","l1":"1 40269U 14061A   26183.79397764 -.00000155  00000+0  00000+0 0  9995","l2":"2 40269   6.5564  88.6335 0022102   4.1504 196.8433  1.00274305 42847","cat":"geostationary"},{"name":"INTELSAT 30 (IS-30)","l1":"1 40271U 14062A   26183.42121126 -.00000140  00000+0  00000+0 0  9990","l2":"2 40271   0.0209  49.6416 0001446 348.4439 298.9563  1.00273081  6940","cat":"geostationary"},{"name":"ARSAT 1","l1":"1 40272U 14062B   26183.65528009 -.00000249  00000+0  00000+0 0  9997","l2":"2 40272   0.0392 290.9521 0001999 168.7347 345.0962  1.00270091 42783","cat":"geostationary"},{"name":"EUTELSAT 53A","l1":"1 40277U 14064A   26182.23862318  .00000108  00000+0  00000+0 0  9994","l2":"2 40277   0.0161 304.0538 0001288 241.6748 232.4716  1.00271894 41703","cat":"geostationary"},{"name":"GSAT-16","l1":"1 40332U 14078A   26183.77065441  .00000096  00000+0  00000+0 0  9999","l2":"2 40332   0.0475 262.0809 0007832 186.3320 164.9187  1.00271180 42260","cat":"geostationary"},{"name":"DIRECTV 14","l1":"1 40333U 14078B   26183.42034461 -.00000115  00000+0  00000+0 0  9993","l2":"2 40333   0.0102  26.2148 0000293   2.4668 303.8682  1.00271936 42196","cat":"geostationary"}]