OBJECT_NAME,OBJECT_ID,EPOCH,MEAN_MOTION,ECCENTRICITY,INCLINATION,RA_OF_ASC_NODE,ARG_OF_PERICENTER,MEAN_ANOMALY,EPHEMERIS_TYPE,CLASSIFICATION_TYPE,NORAD_CAT_ID,ELEMENT_SET_NO,REV_AT_EPOCH,BSTAR,MEAN_MOTION_DOT,MEAN_MOTION_DDOT
ASTRA 2E,2013-056A,2026-07-02T17:58:02.728416,1.00275032,.0002725,0.0752,314.9367,163.1636,100.6954,0,U,39285,999,4657,0,.161E-5,0
FM-6,2013-058A,2026-07-02T16:51:02.863872,1.00271889,.000196,0.0160,40.7600,138.6453,237.7772,0,U,39360,999,4622,0,-.5E-7,0
RADUGA-1M 3,2013-062A,2026-07-02T17:34:15.542976,1.00273797,.0001878,5.9949,72.1589,282.0892,225.0751,0,U,39375,999,4626,0,.161E-5,0
SES-8,2013-071A,2026-07-02T19:18:54.956736,1.00272753,.0003043,0.0422,267.1121,191.9070,206.5515,0,U,39460,999,4458,0,-.259E-5,0
INMARSAT 5-F1,2013-073A,2026-07-02T18:39:15.626880,1.00273425,.0000627,0.0186,27.9863,336.8090,258.4696,0,U,39476,999,4573,0,.38E-6,0
TKSAT-1 (TUPAC KATARI),2013-075A,2026-07-02T15:16:43.388256,1.00270942,.0002767,0.0397,136.9276,318.0827,327.6532,0,U,39481,999,4575,0,-.184E-5,0
EXPRESS-AM5,2013-077A,2026-07-02T21:29:27.610944,1.00269583,.0000236,0.0207,291.3497,109.2889,342.6815,0,U,39487,999,4651,0,-.27E-5,0
GSAT-14,2014-001A,2026-07-02T18:55:07.593312,1.00271220,.0001195,0.0413,239.4988,323.0183,76.0746,0,U,39498,999,4553,0,-.66E-6,0
THAICOM 6,2014-002A,2026-07-02T18:58:17.044320,1.00270897,.0004744,0.0602,108.9092,8.4238,166.5786,0,U,39500,999,4561,0,-.11E-5,0
TDRS 12,2014-004A,2026-07-02T10:21:53.682048,1.00277877,.0003541,3.9914,19.3283,201.9559,173.6483,0,U,39504,999,4443,0,-.261E-5,0
ABS-2,2014-006A,2026-07-02T18:55:07.595040,1.00271938,.0003849,0.0230,68.5876,17.5290,193.4054,0,U,39508,999,4543,0,-.75E-6,0
ATHENA-FIDUS,2014-006B,2026-07-02T18:09:07.927200,1.00272715,.0001645,0.0286,94.4067,18.5301,117.9333,0,U,39509,999,4524,0,.165E-5,0
TURKSAT 4A,2014-007A,2026-07-02T18:13:52.845888,1.00273708,.0000722,0.0864,281.0379,326.8177,348.4209,0,U,39522,999,4512,0,.157E-5,0
EXPRESS-AT1,2014-010A,2026-07-02T19:43:02.593920,1.00307951,.0004553,0.2965,85.4979,45.3906,149.9780,0,U,39612,999,4497,0,.17E-6,0
EXPRESS-AT2,2014-010B,2026-07-02T18:52:32.208960,1.00270396,.0000334,0.0186,22.0441,71.0663,166.8413,0,U,39613,999,4465,0,0,0
AMAZONAS 4A,2014-011A,2026-07-02T13:37:50.562912,1.00269578,.0004946,0.0701,211.0525,277.8907,282.1090,0,U,39616,999,4486,0,-.242E-5,0
ASTRA 5B,2014-011B,2026-07-02T17:27:33.668064,1.00274609,.0002216,0.0773,302.4413,164.9168,98.8104,0,U,39617,999,4482,0,.148E-5,0
IRNSS-1B,2014-017A,2026-07-02T17:39:52.503840,1.00271810,.0022895,28.8979,240.1346,194.2235,166.4341,0,U,39635,999,4495,0,.142E-5,0
LUCH-5V,2014-023A,2026-07-02T19:19:29.608320,1.00269954,.0002636,5.1696,69.5910,56.8714,178.9914,0,U,39727,999,4451,0,-.26E-5,0
KAZSAT-3,2014-023B,2026-07-02T18:35:39.751296,1.00274193,.000034,0.0106,10.0372,160.4347,87.7460,0,U,39728,999,4261,0,.71E-6,0
EUTELSAT 3B,2014-030A,2026-07-02T17:25:07.907808,1.00271929,.0004193,0.0606,6.3028,92.9995,85.8255,0,U,39773,999,4422,0,.31E-6,0
ASIASAT 8 (AMOS-7),2014-046A,2026-07-02T18:09:51.885792,1.00274640,.0001756,0.0375,271.4377,177.7952,209.3184,0,U,40107,999,10230,0,-.322E-5,0
ASIASAT 6,2014-052A,2026-07-02T17:58:24.603168,1.00270512,.0000916,0.0340,266.7151,219.2534,184.3276,0,U,40141,999,4323,0,-.351E-5,0
OPTUS 10,2014-054A,2026-07-02T16:45:29.268288,1.00270508,.0002122,0.0997,328.3699,133.0032,226.7434,0,U,40146,999,4318,0,-.137E-5,0
MEASAT-3B,2014-054B,2026-07-02T19:14:10.271328,1.00271283,.0002546,0.0241,12.7854,72.1757,215.9094,0,U,40147,999,4306,0,-.231E-5,0
HIMAWARI-8,2014-060A,2026-07-02T18:04:24.028032,1.00271911,.0001053,0.0090,350.5913,117.0732,224.9023,0,U,40267,999,4291,0,-.265E-5,0
IRNSS-1C,2014-061A,2026-07-02T19:03:19.668096,1.00274305,.0022102,6.5564,88.6335,4.1504,196.8433,0,U,40269,999,4284,0,-.155E-5,0
INTELSAT 30 (IS-30),2014-062A,2026-07-02T10:06:32.652864,1.00273081,.0001446,0.0209,49.6416,348.4439,298.9563,0,U,40271,999,694,0,-.14E-5,0
ARSAT 1,2014-062B,2026-07-02T15:43:36.199776,1.00270091,.0001999,0.0392,290.9521,168.7347,345.0962,0,U,40272,999,4278,0,-.249E-5,0
EUTELSAT 53A,2014-064A,2026-07-01T05:43:37.042752,1.00271894,.0001288,0.0161,304.0538,241.6748,232.4716,0,U,40277,999,4170,0,.108E-5,0
GSAT-16,2014-078A,2026-07-02T18:29:44.541024,1.00271180,.0007832,0.0475,262.0809,186.3320,164.9187,0,U,40332,999,4226,0,.96E-6,0
DIRECTV 14,2014-078B,2026-07-02T10:05:17.774304,1.00271936,.0000293,0.0102,26.2148,2.4668,303.8682,0,U,40333,999,4219,0,-.115E-5,0
